{
  "type": "FeatureCollection",
  "features": [
    {
      "type": "Feature",
      "properties": {
        "norad_id": 66947,
        "name": "STARLINK-36089",
        "group": "last-30-days",
        "lat": 53.03041098406276,
        "lon": 64.50632818487487,
        "alt_km": 399.1813939798594,
        "timestamp": "2025-12-26T23:26:40.922947+00:00",
        "meta_object_name": "STARLINK-36089",
        "meta_object_id": "2025-286Y",
        "meta_epoch": "2025-12-26T18:00:02.998944",
        "meta_mean_motion": 15.5425073,
        "meta_eccentricity": 0.0001413,
        "meta_inclination": 53.1591,
        "meta_ra_of_asc_node": 340.6943,
        "meta_arg_of_pericenter": 94.4948,
        "meta_mean_anomaly": 162.9665,
        "meta_ephemeris_type": 0,
        "meta_classification_type": "U",
        "meta_norad_cat_id": 66947,
        "meta_element_set_no": 999,
        "meta_rev_at_epoch": 424,
        "meta_bstar": -0.034155,
        "meta_mean_motion_dot": -0.02026191,
        "meta_mean_motion_ddot": 0,
        "tle_line1": "1 66947U 25286Y   25360.75003471 -.02026191  00000+0 -34155-1 0  9999",
        "tle_line2": "2 66947  53.1591 340.6943 0001413  94.4948 162.9665 15.54250730  4241"
      },
      "geometry": {
        "type": "Point",
        "coordinates": [
          64.50632818487487,
          53.03041098406276
        ]
      }
    },
    {
      "type": "Feature",
      "properties": {
        "norad_id": 66948,
        "name": "STARLINK-36116",
        "group": "last-30-days",
        "lat": 52.85103957401472,
        "lon": 61.33412033675318,
        "alt_km": 399.1844163085716,
        "timestamp": "2025-12-26T23:26:40.922956+00:00",
        "meta_object_name": "STARLINK-36116",
        "meta_object_id": "2025-286Z",
        "meta_epoch": "2025-12-26T18:00:02.998944",
        "meta_mean_motion": 15.54250257,
        "meta_eccentricity": 0.0001478,
        "meta_inclination": 53.1588,
        "meta_ra_of_asc_node": 340.6986,
        "meta_arg_of_pericenter": 99.0683,
        "meta_mean_anomaly": 156.4758,
        "meta_ephemeris_type": 0,
        "meta_classification_type": "U",
        "meta_norad_cat_id": 66948,
        "meta_element_set_no": 999,
        "meta_rev_at_epoch": 424,
        "meta_bstar": -0.034141,
        "meta_mean_motion_dot": -0.0202547,
        "meta_mean_motion_ddot": 0,
        "tle_line1": "1 66948U 25286Z   25360.75003471 -.02025470  00000+0 -34141-1 0  9994",
        "tle_line2": "2 66948  53.1588 340.6986 0001478  99.0683 156.4758 15.54250257  4248"
      },
      "geometry": {
        "type": "Point",
        "coordinates": [
          61.33412033675318,
          52.85103957401472
        ]
      }
    },
    {
      "type": "Feature",
      "properties": {
        "norad_id": 66949,
        "name": "STARLINK-36096",
        "group": "last-30-days",
        "lat": 53.12436831103721,
        "lon": 67.69305486595594,
        "alt_km": 399.1683256833139,
        "timestamp": "2025-12-26T23:26:40.922965+00:00",
        "meta_object_name": "STARLINK-36096",
        "meta_object_id": "2025-286AA",
        "meta_epoch": "2025-12-26T18:00:02.998944",
        "meta_mean_motion": 15.54249038,
        "meta_eccentricity": 0.0001428,
        "meta_inclination": 53.1593,
        "meta_ra_of_asc_node": 340.6905,
        "meta_arg_of_pericenter": 99.7938,
        "meta_mean_anomaly": 159.5848,
        "meta_ephemeris_type": 0,
        "meta_classification_type": "U",
        "meta_norad_cat_id": 66949,
        "meta_element_set_no": 999,
        "meta_rev_at_epoch": 424,
        "meta_bstar": -0.034096,
        "meta_mean_motion_dot": -0.02022979,
        "meta_mean_motion_ddot": 0,
        "tle_line1": "1 66949U 25286AA  25360.75003471 -.02022979  00000+0 -34096-1 0  9995",
        "tle_line2": "2 66949  53.1593 340.6905 0001428  99.7938 159.5848 15.54249038  4240"
      },
      "geometry": {
        "type": "Point",
        "coordinates": [
          67.69305486595594,
          53.12436831103721
        ]
      }
    },
    {
      "type": "Feature",
      "properties": {
        "norad_id": 66950,
        "name": "STARLINK-36111",
        "group": "last-30-days",
        "lat": 53.05481832528143,
        "lon": 74.08294424483155,
        "alt_km": 399.09673216893043,
        "timestamp": "2025-12-26T23:26:40.922975+00:00",
        "meta_object_name": "STARLINK-36111",
        "meta_object_id": "2025-286AB",
        "meta_epoch": "2025-12-26T18:00:02.998944",
        "meta_mean_motion": 15.54250223,
        "meta_eccentricity": 0.0001517,
        "meta_inclination": 53.1592,
        "meta_ra_of_asc_node": 340.6825,
        "meta_arg_of_pericenter": 93.4599,
        "meta_mean_anomaly": 169.7508,
        "meta_ephemeris_type": 0,
        "meta_classification_type": "U",
        "meta_norad_cat_id": 66950,
        "meta_element_set_no": 999,
        "meta_rev_at_epoch": 424,
        "meta_bstar": -0.034137,
        "meta_mean_motion_dot": -0.02025283,
        "meta_mean_motion_ddot": 0,
        "tle_line1": "1 66950U 25286AB  25360.75003471 -.02025283  00000+0 -34137-1 0  9994",
        "tle_line2": "2 66950  53.1592 340.6825 0001517  93.4599 169.7508 15.54250223  4249"
      },
      "geometry": {
        "type": "Point",
        "coordinates": [
          74.08294424483155,
          53.05481832528143
        ]
      }
    },
    {
      "type": "Feature",
      "properties": {
        "norad_id": 66951,
        "name": "STARLINK-35999",
        "group": "last-30-days",
        "lat": 52.892710047552995,
        "lon": 77.25467528591348,
        "alt_km": 399.1935265295451,
        "timestamp": "2025-12-26T23:26:40.922984+00:00",
        "meta_object_name": "STARLINK-35999",
        "meta_object_id": "2025-286AC",
        "meta_epoch": "2025-12-26T18:00:02.998944",
        "meta_mean_motion": 15.54251579,
        "meta_eccentricity": 0.0001418,
        "meta_inclination": 53.1598,
        "meta_ra_of_asc_node": 340.678,
        "meta_arg_of_pericenter": 102.1588,
        "meta_mean_anomaly": 162.9691,
        "meta_ephemeris_type": 0,
        "meta_classification_type": "U",
        "meta_norad_cat_id": 66951,
        "meta_element_set_no": 999,
        "meta_rev_at_epoch": 424,
        "meta_bstar": -0.034151,
        "meta_mean_motion_dot": -0.02026058,
        "meta_mean_motion_ddot": 0,
        "tle_line1": "1 66951U 25286AC  25360.75003471 -.02026058  00000+0 -34151-1 0  9992",
        "tle_line2": "2 66951  53.1598 340.6780 0001418 102.1588 162.9691 15.54251579  4245"
      },
      "geometry": {
        "type": "Point",
        "coordinates": [
          77.25467528591348,
          52.892710047552995
        ]
      }
    },
    {
      "type": "Feature",
      "properties": {
        "norad_id": 66952,
        "name": "STARLINK-36122",
        "group": "last-30-days",
        "lat": 53.13256792510831,
        "lon": 70.88800564595398,
        "alt_km": 399.11027648633535,
        "timestamp": "2025-12-26T23:26:40.922994+00:00",
        "meta_object_name": "STARLINK-36122",
        "meta_object_id": "2025-286AD",
        "meta_epoch": "2025-12-26T18:00:02.998944",
        "meta_mean_motion": 15.54251444,
        "meta_eccentricity": 0.0001506,
        "meta_inclination": 53.1593,
        "meta_ra_of_asc_node": 340.6866,
        "meta_arg_of_pericenter": 100.8453,
        "meta_mean_anomaly": 160.4482,
        "meta_ephemeris_type": 0,
        "meta_classification_type": "U",
        "meta_norad_cat_id": 66952,
        "meta_element_set_no": 999,
        "meta_rev_at_epoch": 424,
        "meta_bstar": -0.034164,
        "meta_mean_motion_dot": -0.02026776,
        "meta_mean_motion_ddot": 0,
        "tle_line1": "1 66952U 25286AD  25360.75003471 -.02026776  00000+0 -34164-1 0  9994",
        "tle_line2": "2 66952  53.1593 340.6866 0001506 100.8453 160.4482 15.54251444  4242"
      },
      "geometry": {
        "type": "Point",
        "coordinates": [
          70.88800564595398,
          53.13256792510831
        ]
      }
    },
    {
      "type": "Feature",
      "properties": {
        "norad_id": 66953,
        "name": "HULIANWANG DIGUI-114",
        "group": "last-30-days",
        "lat": 18.26253014511694,
        "lon": -17.86034632830875,
        "alt_km": 1019.7239485291411,
        "timestamp": "2025-12-26T23:26:40.923003+00:00",
        "meta_object_name": "HULIANWANG DIGUI-114",
        "meta_object_id": "2025-287A",
        "meta_epoch": "2025-12-20T09:09:14.655168",
        "meta_mean_motion": 13.66161866,
        "meta_eccentricity": 0.00096738,
        "meta_inclination": 86.496,
        "meta_ra_of_asc_node": 343.3747,
        "meta_arg_of_pericenter": 185.0352,
        "meta_mean_anomaly": 175.071,
        "meta_ephemeris_type": 0,
        "meta_classification_type": "U",
        "meta_norad_cat_id": 66953,
        "meta_element_set_no": 999,
        "meta_rev_at_epoch": 157,
        "meta_bstar": 3.033618e-06,
        "meta_mean_motion_dot": 1.9e-07,
        "meta_mean_motion_ddot": 0,
        "tle_line1": "1 66953U 25287A   25354.38141962  .00000019  00000+0  30336-5 0  9995",
        "tle_line2": "2 66953  86.4960 343.3747 0009673 185.0352 175.0710 13.66161866  1572"
      },
      "geometry": {
        "type": "Point",
        "coordinates": [
          -17.86034632830875,
          18.26253014511694
        ]
      }
    }
  ]
}